STARLINK-31211          
1 59031U 24038J   26068.24717880 -.00000834  00000+0 -20818-4 0  9993
2 59031  42.9996  29.2471 0000681 253.7027 106.3750 15.27571669114585
FLOCK 4G-5              
1 62663U 25009BG  26068.45638436  .00011278  00000+0  40688-3 0  9997
2 62663  97.4058 151.2478 0002094 314.5072  45.5996 15.28679529 63699
